*******************************************************************************
Ephemeris / PORT_LOGIN Mon Oct  5 17:16:09 2015 Pasadena, USA    / Horizons    
*******************************************************************************
Target body name: Deimos (402)                    {source: MAR097}
Center body name: Mars (499)                      {source: MAR097}
Center-site name: BODY CENTER
*******************************************************************************
Start time      : A.D. 1900-Jan-04 00:00:00.0000 CT 
Stop  time      : A.D. 2099-Dec-31 00:00:00.0000 CT 
Step-size       : 14400 minutes
*******************************************************************************
Center geodetic : 0.00000000,0.00000000,0.0000000 {E-lon(deg),Lat(deg),Alt(km)}
Center cylindric: 0.00000000,0.00000000,0.0000000 {E-lon(deg),Dxy(km),Dz(km)}
Center radii    : 3396.2 x 3396.2 x 3376.2 km     {Equator, meridian, pole}    
Output units    : AU-D                                                         
Output format   : 03
Reference frame : ICRF/J2000.0                                                 
Output type     : GEOMETRIC cartesian states
Coordinate systm: Ecliptic and Mean Equinox of Reference Epoch                 
*******************************************************************************
JDCT 
   X     Y     Z
   VX    VY    VZ
   LT    RG    RR
*******************************************************************************
$$SOE
2458113.500000000 = A.D. 2017-Dec-26 00:00:00.0000 (CT)
   8.193425463346066E-05 -1.241716821927198E-04 -4.961179160916026E-05
   5.787917781495519E-04  4.722630484244436E-04 -2.255973035038269E-04
   9.057286842360610E-07  1.568220603345758E-04 -1.692224970725220E-07
2458123.500000000 = A.D. 2018-Jan-05 00:00:00.0000 (CT)
   1.684914570057399E-05 -1.543414313614054E-04 -2.211623859151506E-05
   7.030390573457149E-04  1.220983898883650E-04 -3.157545548073821E-04
   9.057496863065834E-07  1.568256967303618E-04 -1.015757094372865E-07
2458133.500000000 = A.D. 2018-Jan-15 00:00:00.0000 (CT)
  -5.235664348250702E-05 -1.474443737272230E-04  1.071581818531804E-05
   6.583834681921706E-04 -2.577140453858218E-04 -3.300636294102814E-04
   9.057789834070077E-07  1.568307693660532E-04 -5.843457043639660E-08
2458143.500000000 = A.D. 2018-Jan-25 00:00:00.0000 (CT)
  -1.089422383758451E-04 -1.051470772140116E-04  4.094263508394694E-05
   4.555771298301374E-04 -5.752745727011894E-04 -2.650566540882506E-04
   9.058660423809108E-07  1.568458431601106E-04  3.015555611058994E-08
2458153.500000000 = A.D. 2018-Feb-04 00:00:00.0000 (CT)
  -1.393533651220341E-04 -3.760411563262887E-05  6.132289237725749E-05
   1.434714970197047E-04 -7.547656376387076E-04 -1.364712804704989E-04
   9.057428337252882E-07  1.568245102426906E-04  1.290918084095313E-07
2458163.500000000 = A.D. 2018-Feb-14 00:00:00.0000 (CT)
  -1.363021038487177E-04  3.905907995338977E-05  6.698008461897116E-05
  -2.035794109640010E-04 -7.529259013424663E-04  2.509247541062713E-05
   9.056743305499598E-07  1.568126492855613E-04  1.301244609973250E-07
2458173.500000000 = A.D. 2018-Feb-24 00:00:00.0000 (CT)
  -1.005166894166944E-04  1.062481104127109E-04  5.653875067438838E-05
  -5.014129199330557E-04 -5.701346275774797E-04  1.804512967560771E-04
   9.056501908299552E-07  1.568084696226083E-04  1.730184453309808E-07
2458183.500000000 = A.D. 2018-Mar-06 00:00:00.0000 (CT)
  -4.055382846199218E-05  1.479138877129308E-04  3.250058825523274E-05
  -6.789929986187436E-04 -2.502726762076339E-04  2.925155620421283E-04
   9.054756521514657E-07  1.567782491872338E-04  1.523738591967515E-07
2458193.500000000 = A.D. 2018-Mar-16 00:00:00.0000 (CT)
   2.920953643656776E-05  1.540248765588706E-04  6.290571419881079E-07
  -6.932890067955033E-04  1.301703028624498E-04  3.342248541156229E-04
   9.054357901097452E-07  1.567713472886624E-04  5.779663581754694E-08
2458203.500000000 = A.D. 2018-Mar-26 00:00:00.0000 (CT)
   9.188187825375903E-05  1.231021895426030E-04 -3.135436264000662E-05
  -5.408779567397219E-04  4.789609125641445E-04  2.954922516809021E-04
   9.054775909734275E-07  1.567785848838501E-04 -4.571707591938383E-09
2458213.500000000 = A.D. 2018-Apr-05 00:00:00.0000 (CT)
   1.324788779912074E-04  6.254151464274500E-05 -5.579789696542744E-05
  -2.583878020768699E-04  7.127963620355319E-04  1.856957003227483E-04
   9.054034462935914E-07  1.567657471304952E-04 -8.287234926448741E-08
2458223.500000000 = A.D. 2018-Apr-15 00:00:00.0000 (CT)
   1.412315411828132E-04 -1.310784174550614E-05 -6.682043766869878E-05
   8.647075560191023E-05  7.750556185174438E-04  3.113147895796928E-05
   9.055440814937138E-07  1.567900973605614E-04 -1.730170482315946E-07
2458233.500000000 = A.D. 2018-Apr-25 00:00:00.0000 (CT)
   1.160282392733782E-04 -8.551611111934925E-05 -6.175645523433521E-05
   4.100601606570251E-04  6.509950037830943E-04 -1.306454756559837E-04
   9.056597888845038E-07  1.568101314742375E-04 -1.517834040575255E-07
2458243.500000000 = A.D. 2018-May-05 00:00:00.0000 (CT)
   6.290083843143227E-05 -1.374182759935173E-04 -4.182992337793126E-05
   6.353048647194745E-04  3.704204539525691E-04 -2.610432803676466E-04
   9.056712656097992E-07  1.568121186076230E-04 -1.397284123674422E-07
2458253.500000000 = A.D. 2018-May-15 00:00:00.0000 (CT)
  -5.362546131977241E-06 -1.562949810445397E-04 -1.184458267590367E-05
   7.077228959413352E-04  7.259527538891180E-07 -3.285532665123454E-04
   9.058025873637319E-07  1.568348562644699E-04 -1.089242647551109E-07
2458263.500000000 = A.D. 2018-May-25 00:00:00.0000 (CT)
  -7.227288540627356E-05 -1.376147591955829E-04  2.094374200245438E-05
   6.101685229034068E-04 -3.687006673190956E-04 -3.170349552970258E-04
   9.058515658195012E-07  1.568433366212029E-04  7.364326521663766E-10
2458273.500000000 = A.D. 2018-Jun-04 00:00:00.0000 (CT)
  -1.218828523423766E-04 -8.582316343106207E-05  4.871287454323804E-05
   3.659134937864098E-04 -6.499167588277582E-04 -2.292992977345435E-04
   9.057439792535226E-07  1.568247085847559E-04  6.060239422131027E-08
2458283.500000000 = A.D. 2018-Jun-14 00:00:00.0000 (CT)
  -1.422081444974266E-04 -1.341567960159412E-05  6.475425928540167E-05
   3.360601296250548E-05 -7.747548973891552E-04 -8.641680407982984E-05
   9.057856249609547E-07  1.568319193154717E-04  1.208847527094880E-07
2458293.500000000 = A.D. 2018-Jun-24 00:00:00.0000 (CT)
  -1.283526687348444E-04  6.215409238186561E-05  6.520864876674141E-05
  -3.065918617394942E-04 -7.134858732232672E-04  7.704751173647838E-05
   9.056651167383477E-07  1.568110539635342E-04  1.911913707045348E-07
2458303.500000000 = A.D. 2018-Jul-04 00:00:00.0000 (CT)
  -8.361170704889077E-05  1.228529976964400E-04  4.997547334845822E-05
  -5.735620853346797E-04 -4.805049870141110E-04  2.220986419768283E-04
   9.055107425545355E-07  1.567843249021836E-04  1.563405872279544E-07
2458313.500000000 = A.D. 2018-Jul-14 00:00:00.0000 (CT)
  -1.877698753196191E-05  1.539866368918920E-04  2.273913487233937E-05
  -7.024932740526864E-04 -1.318706785976592E-04  3.135750790328630E-04
   9.055144874637389E-07  1.567849733131121E-04  9.446798815609950E-08
2458323.500000000 = A.D. 2018-Jul-24 00:00:00.0000 (CT)
   5.053284406224138E-05  1.480715959743330E-04 -9.924786189390331E-06
  -6.625912224808335E-04  2.482752015544092E-04  3.295957162872545E-04
   9.054360095607234E-07  1.567713852854213E-04  5.561856375063373E-08
2458333.500000000 = A.D. 2018-Aug-03 00:00:00.0000 (CT)
   1.077765734574600E-04  1.064973288439781E-04 -4.021817248130190E-05
  -4.631241024438319E-04  5.691572078771650E-04  2.662953580376891E-04
   9.053937340570714E-07  1.567640655088705E-04 -6.455022865098262E-08
2458343.500000000 = A.D. 2018-Aug-13 00:00:00.0000 (CT)
   1.390627703658960E-04  3.934798790624936E-05 -6.079555416273263E-05
  -1.523455157737914E-04  7.527582565236201E-04  1.390258114924930E-04
   9.055382435181334E-07  1.567890865464240E-04 -1.161940241822884E-07
2458353.500000000 = A.D. 2018-Aug-23 00:00:00.0000 (CT)
   1.369015055894025E-04 -3.724795528990790E-05 -6.673835364070903E-05
   1.949148399376698E-04  7.554417098549883E-04 -2.146720549319473E-05
   9.055497104253919E-07  1.567910719798692E-04 -1.392810921401609E-07
2458363.500000000 = A.D. 2018-Sep-02 00:00:00.0000 (CT)
   1.018024384019302E-04 -1.049588381652004E-04 -5.663724093181888E-05
   4.955753770140536E-04  5.763474110681630E-04 -1.768031332969337E-04
   9.056313160314362E-07  1.568052015525519E-04 -1.806776492718775E-07
2458373.500000000 = A.D. 2018-Sep-12 00:00:00.0000 (CT)
   4.226514057517393E-05 -1.473944514121038E-04 -3.295139143955875E-05
   6.767921259558305E-04  2.589120248199213E-04 -2.893871289618223E-04
   9.058042163965203E-07  1.568351383227536E-04 -1.388270184671129E-07
2458383.500000000 = A.D. 2018-Sep-22 00:00:00.0000 (CT)
  -2.742693471801655E-05 -1.544075402708185E-04 -1.371196681060712E-06
   6.955298784135519E-04 -1.205507387044909E-04 -3.324638716624965E-04
   9.057774219813509E-07  1.568304990135814E-04 -4.103902705242932E-08
2458393.500000000 = A.D. 2018-Oct-02 00:00:00.0000 (CT)
  -9.061188557120966E-05 -1.243100349239111E-04  3.055745208673629E-05
   5.469774771413857E-04 -4.713824848129779E-04 -2.956536842579020E-04
   9.058041400734587E-07  1.568351251078252E-04  3.119772301270355E-09
2458403.500000000 = A.D. 2018-Oct-12 00:00:00.0000 (CT)
  -1.319659638657181E-04 -6.440111624068804E-05  5.510073056087935E-05
   2.671898035389176E-04 -7.085777788054798E-04 -1.879398712342677E-04
   9.058290600920944E-07  1.568394398752981E-04  1.123169835558889E-07
2458413.500000000 = A.D. 2018-Oct-22 00:00:00.0000 (CT)
  -1.416263483929933E-04  1.100519040704171E-05  6.641340655363790E-05
  -7.693015798678987E-05 -7.757748645707374E-04 -3.511609969622141E-05
   9.056682602631725E-07  1.568115982479853E-04  1.633007631452607E-07
